BOTAN                   
1 65942U 98067XP  25308.30992354  .00070090  00000+0  10417-2 0  9999
2 65942  51.6322 332.1719 0004782  18.8156 341.3011 15.54512341  3875
E-KAGAKU-1              
1 65943U 98067XQ  25309.21758692  .00053565  00000+0  82466-3 0  9998
2 65943  51.6325 327.7332 0004471  12.1112 347.9985 15.53658903  4017
2025-226D               
1 65944U 25226D   25308.56229115  .01101371  00000+0  22614-1 0  9993
2 65944  97.6572  23.2310 0020104 274.3436  85.5513 15.43268434  3711
SHIYAN-31               
1 65945U 25227A   25309.23433195  .00010489  00000+0  47936-3 0  9999
2 65945  80.0045  71.7377 0011514 192.9622 167.1310 15.20416327  3477
CZ-2D R/B               
1 65946U 25227B   25309.19506961  .00010658  00000+0  39262-3 0  9998
2 65946  80.1556  72.1018 0021328 319.9855  39.9803 15.27509795  3489
KUIPER-00101            
1 65947U 25228A   25309.22005947  .00023699  00000+0  69809-3 0  9991
2 65947  51.8795 201.3294 0005601 214.5956 145.4666 15.34910321  4659
KUIPER-00113            
1 65948U 25228B   25309.21636494  .00027926  00000+0  81344-3 0  9993
2 65948  51.8800 201.3093 0006168 209.4869 150.5769 15.35166482  4652
KUIPER-00117            
1 65949U 25228C   25309.15188511  .00024482  00000+0  71602-3 0  9999
2 65949  51.8796 201.6275 0005962 208.8355 151.2302 15.35114266  4649
KUIPER-00121            
1 65950U 25228D   25309.22563339  .00023147  00000+0  69025-3 0  9997
2 65950  51.8811 201.3720 0005543 227.8954 132.1561 15.34536251  4659
KUIPER-00122            
1 65951U 25228E   25309.25001157  .00031573  00000+0  11043-2 0  9994
2 65951  51.8824 201.3832 0007173 244.0339 193.5399 15.29235227  3288
KUIPER-00123            
1 65952U 25228F   25309.25001157 -.00173077  00000+0 -61948-2 0  9992
2 65952  51.8818 201.3578 0005163 243.4237 189.0689 15.28945168  1580
KUIPER-00124            
1 65953U 25228G   25309.22812981  .00025597  00000+0  76645-3 0  9997
2 65953  51.8806 201.3854 0005422 238.5852 121.4604 15.34348255  4650
