CCSDS_OMM_VERS = 2.0
CREATION_DATE  = 
ORIGINATOR     = 

OBJECT_NAME    = BOTAN
OBJECT_ID      = 1998-067XP
CENTER_NAME    = EARTH
REF_FRAME      = TEME
TIME_SYSTEM    = UTC
MEAN_ELEMENT_THEORY = SGP/SGP4

EPOCH          = 2025-11-04T07:26:17.393856
MEAN_MOTION    = 15.54512341
ECCENTRICITY   = .00047823
INCLINATION    = 51.6322
RA_OF_ASC_NODE = 332.1719
ARG_OF_PERICENTER = 18.8156
MEAN_ANOMALY   = 341.3011

EPHEMERIS_TYPE = 0
CLASSIFICATION_TYPE = U
NORAD_CAT_ID   = 65942
ELEMENT_SET_NO = 999
REV_AT_EPOCH   = 387
BSTAR          = .1041658E-2
MEAN_MOTION_DOT = .7009E-3
MEAN_MOTION_DDOT = 0

CCSDS_OMM_VERS = 2.0
CREATION_DATE  = 
ORIGINATOR     = 

OBJECT_NAME    = E-KAGAKU-1
OBJECT_ID      = 1998-067XQ
CENTER_NAME    = EARTH
REF_FRAME      = TEME
TIME_SYSTEM    = UTC
MEAN_ELEMENT_THEORY = SGP/SGP4

EPOCH          = 2025-11-05T05:13:19.509888
MEAN_MOTION    = 15.53658903
ECCENTRICITY   = .00044719
INCLINATION    = 51.6325
RA_OF_ASC_NODE = 327.7332
ARG_OF_PERICENTER = 12.1112
MEAN_ANOMALY   = 347.9985

EPHEMERIS_TYPE = 0
CLASSIFICATION_TYPE = U
NORAD_CAT_ID   = 65943
ELEMENT_SET_NO = 999
REV_AT_EPOCH   = 401
BSTAR          = .82466019E-3
MEAN_MOTION_DOT = .53565E-3
MEAN_MOTION_DDOT = 0

CCSDS_OMM_VERS = 2.0
CREATION_DATE  = 
ORIGINATOR     = 

OBJECT_NAME    = 2025-226D
OBJECT_ID      = 2025-226D
CENTER_NAME    = EARTH
REF_FRAME      = TEME
TIME_SYSTEM    = UTC
MEAN_ELEMENT_THEORY = SGP/SGP4

EPOCH          = 2025-11-04T13:29:41.955360
MEAN_MOTION    = 15.43268434
ECCENTRICITY   = .0020104
INCLINATION    = 97.6572
RA_OF_ASC_NODE = 23.2310
ARG_OF_PERICENTER = 274.3436
MEAN_ANOMALY   = 85.5513

EPHEMERIS_TYPE = 0
CLASSIFICATION_TYPE = U
NORAD_CAT_ID   = 65944
ELEMENT_SET_NO = 999
REV_AT_EPOCH   = 371
BSTAR          = .22614E-1
MEAN_MOTION_DOT = .1101371E-1
MEAN_MOTION_DDOT = 0

CCSDS_OMM_VERS = 2.0
CREATION_DATE  = 
ORIGINATOR     = 

OBJECT_NAME    = SHIYAN-31
OBJECT_ID      = 2025-227A
CENTER_NAME    = EARTH
REF_FRAME      = TEME
TIME_SYSTEM    = UTC
MEAN_ELEMENT_THEORY = SGP/SGP4

EPOCH          = 2025-11-05T05:37:26.280480
MEAN_MOTION    = 15.20416327
ECCENTRICITY   = .00115147
INCLINATION    = 80.0045
RA_OF_ASC_NODE = 71.7377
ARG_OF_PERICENTER = 192.9622
MEAN_ANOMALY   = 167.1310

EPHEMERIS_TYPE = 0
CLASSIFICATION_TYPE = U
NORAD_CAT_ID   = 65945
ELEMENT_SET_NO = 999
REV_AT_EPOCH   = 347
BSTAR          = .47936427E-3
MEAN_MOTION_DOT = .10489E-3
MEAN_MOTION_DDOT = 0

CCSDS_OMM_VERS = 2.0
CREATION_DATE  = 
ORIGINATOR     = 

OBJECT_NAME    = CZ-2D R/B
OBJECT_ID      = 2025-227B
CENTER_NAME    = EARTH
REF_FRAME      = TEME
TIME_SYSTEM    = UTC
MEAN_ELEMENT_THEORY = SGP/SGP4

EPOCH          = 2025-11-05T04:40:54.014304
MEAN_MOTION    = 15.27509795
ECCENTRICITY   = .00213289
INCLINATION    = 80.1556
RA_OF_ASC_NODE = 72.1018
ARG_OF_PERICENTER = 319.9855
MEAN_ANOMALY   = 39.9803

EPHEMERIS_TYPE = 0
CLASSIFICATION_TYPE = U
NORAD_CAT_ID   = 65946
ELEMENT_SET_NO = 999
REV_AT_EPOCH   = 348
BSTAR          = .39261977E-3
MEAN_MOTION_DOT = .10658E-3
MEAN_MOTION_DDOT = 0

CCSDS_OMM_VERS = 2.0
CREATION_DATE  = 
ORIGINATOR     = 

OBJECT_NAME    = KUIPER-00101
OBJECT_ID      = 2025-228A
CENTER_NAME    = EARTH
REF_FRAME      = TEME
TIME_SYSTEM    = UTC
MEAN_ELEMENT_THEORY = SGP/SGP4

EPOCH          = 2025-11-05T05:16:53.138208
MEAN_MOTION    = 15.34910321
ECCENTRICITY   = .00056016
INCLINATION    = 51.8795
RA_OF_ASC_NODE = 201.3294
ARG_OF_PERICENTER = 214.5956
MEAN_ANOMALY   = 145.4666

EPHEMERIS_TYPE = 0
CLASSIFICATION_TYPE = U
NORAD_CAT_ID   = 65947
ELEMENT_SET_NO = 999
REV_AT_EPOCH   = 465
BSTAR          = .69809176E-3
MEAN_MOTION_DOT = .23699E-3
MEAN_MOTION_DDOT = 0

CCSDS_OMM_VERS = 2.0
CREATION_DATE  = 
ORIGINATOR     = 

OBJECT_NAME    = KUIPER-00113
OBJECT_ID      = 2025-228B
CENTER_NAME    = EARTH
REF_FRAME      = TEME
TIME_SYSTEM    = UTC
MEAN_ELEMENT_THEORY = SGP/SGP4

EPOCH          = 2025-11-05T05:11:33.930816
MEAN_MOTION    = 15.35166482
ECCENTRICITY   = .00061684
INCLINATION    = 51.8800
RA_OF_ASC_NODE = 201.3093
ARG_OF_PERICENTER = 209.4869
MEAN_ANOMALY   = 150.5769

EPHEMERIS_TYPE = 0
CLASSIFICATION_TYPE = U
NORAD_CAT_ID   = 65948
ELEMENT_SET_NO = 999
REV_AT_EPOCH   = 465
BSTAR          = .81344239E-3
MEAN_MOTION_DOT = .27926E-3
MEAN_MOTION_DDOT = 0

CCSDS_OMM_VERS = 2.0
CREATION_DATE  = 
ORIGINATOR     = 

OBJECT_NAME    = KUIPER-00117
OBJECT_ID      = 2025-228C
CENTER_NAME    = EARTH
REF_FRAME      = TEME
TIME_SYSTEM    = UTC
MEAN_ELEMENT_THEORY = SGP/SGP4

EPOCH          = 2025-11-05T03:38:42.873504
MEAN_MOTION    = 15.35114266
ECCENTRICITY   = .00059624
INCLINATION    = 51.8796
RA_OF_ASC_NODE = 201.6275
ARG_OF_PERICENTER = 208.8355
MEAN_ANOMALY   = 151.2302

EPHEMERIS_TYPE = 0
CLASSIFICATION_TYPE = U
NORAD_CAT_ID   = 65949
ELEMENT_SET_NO = 999
REV_AT_EPOCH   = 464
BSTAR          = .71602333E-3
MEAN_MOTION_DOT = .24482E-3
MEAN_MOTION_DDOT = 0

CCSDS_OMM_VERS = 2.0
CREATION_DATE  = 
ORIGINATOR     = 

OBJECT_NAME    = KUIPER-00121
OBJECT_ID      = 2025-228D
CENTER_NAME    = EARTH
REF_FRAME      = TEME
TIME_SYSTEM    = UTC
MEAN_ELEMENT_THEORY = SGP/SGP4

EPOCH          = 2025-11-05T05:24:54.724896
MEAN_MOTION    = 15.34536251
ECCENTRICITY   = .0005543
INCLINATION    = 51.8811
RA_OF_ASC_NODE = 201.3720
ARG_OF_PERICENTER = 227.8954
MEAN_ANOMALY   = 132.1561

EPHEMERIS_TYPE = 0
CLASSIFICATION_TYPE = U
NORAD_CAT_ID   = 65950
ELEMENT_SET_NO = 999
REV_AT_EPOCH   = 465
BSTAR          = .69025387E-3
MEAN_MOTION_DOT = .23147E-3
MEAN_MOTION_DDOT = 0

CCSDS_OMM_VERS = 2.0
CREATION_DATE  = 
ORIGINATOR     = 

OBJECT_NAME    = KUIPER-00122
OBJECT_ID      = 2025-228E
CENTER_NAME    = EARTH
REF_FRAME      = TEME
TIME_SYSTEM    = UTC
MEAN_ELEMENT_THEORY = SGP/SGP4

EPOCH          = 2025-11-05T06:00:00.999648
MEAN_MOTION    = 15.29235227
ECCENTRICITY   = .00071737
INCLINATION    = 51.8824
RA_OF_ASC_NODE = 201.3832
ARG_OF_PERICENTER = 244.0339
MEAN_ANOMALY   = 193.5399

EPHEMERIS_TYPE = 0
CLASSIFICATION_TYPE = U
NORAD_CAT_ID   = 65951
ELEMENT_SET_NO = 999
REV_AT_EPOCH   = 328
BSTAR          = .11042682E-2
MEAN_MOTION_DOT = .31573E-3
MEAN_MOTION_DDOT = 0

CCSDS_OMM_VERS = 2.0
CREATION_DATE  = 
ORIGINATOR     = 

OBJECT_NAME    = KUIPER-00123
OBJECT_ID      = 2025-228F
CENTER_NAME    = EARTH
REF_FRAME      = TEME
TIME_SYSTEM    = UTC
MEAN_ELEMENT_THEORY = SGP/SGP4

EPOCH          = 2025-11-05T06:00:00.999648
MEAN_MOTION    = 15.28945168
ECCENTRICITY   = .00051634
INCLINATION    = 51.8818
RA_OF_ASC_NODE = 201.3578
ARG_OF_PERICENTER = 243.4237
MEAN_ANOMALY   = 189.0689

EPHEMERIS_TYPE = 0
CLASSIFICATION_TYPE = U
NORAD_CAT_ID   = 65952
ELEMENT_SET_NO = 999
REV_AT_EPOCH   = 158
BSTAR          = -.6194846E-2
MEAN_MOTION_DOT = -.173077E-2
MEAN_MOTION_DDOT = 0

CCSDS_OMM_VERS = 2.0
CREATION_DATE  = 
ORIGINATOR     = 

OBJECT_NAME    = KUIPER-00124
OBJECT_ID      = 2025-228G
CENTER_NAME    = EARTH
REF_FRAME      = TEME
TIME_SYSTEM    = UTC
MEAN_ELEMENT_THEORY = SGP/SGP4

EPOCH          = 2025-11-05T05:28:30.415584
MEAN_MOTION    = 15.34348255
ECCENTRICITY   = .00054223
INCLINATION    = 51.8806
RA_OF_ASC_NODE = 201.3854
ARG_OF_PERICENTER = 238.5852
MEAN_ANOMALY   = 121.4604

EPHEMERIS_TYPE = 0
CLASSIFICATION_TYPE = U
NORAD_CAT_ID   = 65953
ELEMENT_SET_NO = 999
REV_AT_EPOCH   = 465
BSTAR          = .76644615E-3
MEAN_MOTION_DOT = .25597E-3
MEAN_MOTION_DDOT = 0

